CCSDS_OMM_VERS = 2.0
CREATION_DATE  = 
ORIGINATOR     = 

OBJECT_NAME    = SL-16 R/B
OBJECT_ID      = 1993-016B
CENTER_NAME    = EARTH
REF_FRAME      = TEME
TIME_SYSTEM    = UTC
MEAN_ELEMENT_THEORY = SGP/SGP4

EPOCH          = 2025-12-10T03:51:27.785664
MEAN_MOTION    = 14.15287138
ECCENTRICITY   = .0007845
INCLINATION    = 71.0085
RA_OF_ASC_NODE = 43.2207
ARG_OF_PERICENTER = 102.5077
MEAN_ANOMALY   = 257.6924

EPHEMERIS_TYPE = 0
CLASSIFICATION_TYPE = U
NORAD_CAT_ID   = 22566
ELEMENT_SET_NO = 999
REV_AT_EPOCH   = 68950
BSTAR          = -.52787E-4
MEAN_MOTION_DOT = -.15E-5
MEAN_MOTION_DDOT = 0

CCSDS_OMM_VERS = 2.0
CREATION_DATE  = 
ORIGINATOR     = 

OBJECT_NAME    = COSMOS 2242
OBJECT_ID      = 1993-024A
CENTER_NAME    = EARTH
REF_FRAME      = TEME
TIME_SYSTEM    = UTC
MEAN_ELEMENT_THEORY = SGP/SGP4

EPOCH          = 2025-12-10T02:15:41.174784
MEAN_MOTION    = 14.96087952
ECCENTRICITY   = .0014847
INCLINATION    = 82.5189
RA_OF_ASC_NODE = 352.3732
ARG_OF_PERICENTER = 243.9518
MEAN_ANOMALY   = 116.0176

EPHEMERIS_TYPE = 0
CLASSIFICATION_TYPE = U
NORAD_CAT_ID   = 22626
ELEMENT_SET_NO = 999
REV_AT_EPOCH   = 76699
BSTAR          = .26845E-3
MEAN_MOTION_DOT = .3048E-4
MEAN_MOTION_DDOT = 0

CCSDS_OMM_VERS = 2.0
CREATION_DATE  = 
ORIGINATOR     = 

OBJECT_NAME    = SL-16 R/B
OBJECT_ID      = 1993-059B
CENTER_NAME    = EARTH
REF_FRAME      = TEME
TIME_SYSTEM    = UTC
MEAN_ELEMENT_THEORY = SGP/SGP4

EPOCH          = 2025-12-10T01:12:00.791424
MEAN_MOTION    = 14.17213557
ECCENTRICITY   = .0017852
INCLINATION    = 70.9896
RA_OF_ASC_NODE = 200.1583
ARG_OF_PERICENTER = 339.4196
MEAN_ANOMALY   = 20.6206

EPHEMERIS_TYPE = 0
CLASSIFICATION_TYPE = U
NORAD_CAT_ID   = 22803
ELEMENT_SET_NO = 999
REV_AT_EPOCH   = 66683
BSTAR          = .27834E-4
MEAN_MOTION_DOT = .8E-7
MEAN_MOTION_DDOT = 0

CCSDS_OMM_VERS = 2.0
CREATION_DATE  = 
ORIGINATOR     = 

OBJECT_NAME    = ARIANE 40 R/B
OBJECT_ID      = 1993-061H
CENTER_NAME    = EARTH
REF_FRAME      = TEME
TIME_SYSTEM    = UTC
MEAN_ELEMENT_THEORY = SGP/SGP4

EPOCH          = 2025-12-10T04:10:41.564352
MEAN_MOTION    = 14.32798760
ECCENTRICITY   = .0010725
INCLINATION    = 98.5079
RA_OF_ASC_NODE = 49.7507
ARG_OF_PERICENTER = 183.5492
MEAN_ANOMALY   = 176.5617

EPHEMERIS_TYPE = 0
CLASSIFICATION_TYPE = U
NORAD_CAT_ID   = 22830
ELEMENT_SET_NO = 999
REV_AT_EPOCH   = 68128
BSTAR          = .17193E-3
MEAN_MOTION_DOT = .426E-5
MEAN_MOTION_DDOT = 0

CCSDS_OMM_VERS = 2.0
CREATION_DATE  = 
ORIGINATOR     = 

OBJECT_NAME    = COSMOS 2278
OBJECT_ID      = 1994-023A
CENTER_NAME    = EARTH
REF_FRAME      = TEME
TIME_SYSTEM    = UTC
MEAN_ELEMENT_THEORY = SGP/SGP4

EPOCH          = 2025-12-10T03:08:59.699328
MEAN_MOTION    = 14.14350920
ECCENTRICITY   = .0008456
INCLINATION    = 71.0544
RA_OF_ASC_NODE = 2.4686
ARG_OF_PERICENTER = 183.9189
MEAN_ANOMALY   = 176.1868

EPHEMERIS_TYPE = 0
CLASSIFICATION_TYPE = U
NORAD_CAT_ID   = 23087
ELEMENT_SET_NO = 999
REV_AT_EPOCH   = 63214
BSTAR          = -.53789E-4
MEAN_MOTION_DOT = -.15E-5
MEAN_MOTION_DDOT = 0

CCSDS_OMM_VERS = 2.0
CREATION_DATE  = 
ORIGINATOR     = 

OBJECT_NAME    = SL-16 R/B
OBJECT_ID      = 1994-023B
CENTER_NAME    = EARTH
REF_FRAME      = TEME
TIME_SYSTEM    = UTC
MEAN_ELEMENT_THEORY = SGP/SGP4

EPOCH          = 2025-12-10T03:32:58.044192
MEAN_MOTION    = 14.15002319
ECCENTRICITY   = .0001231
INCLINATION    = 71.0010
RA_OF_ASC_NODE = 258.9284
ARG_OF_PERICENTER = 36.9939
MEAN_ANOMALY   = 323.1269

EPHEMERIS_TYPE = 0
CLASSIFICATION_TYPE = U
NORAD_CAT_ID   = 23088
ELEMENT_SET_NO = 999
REV_AT_EPOCH   = 63342
BSTAR          = .10272E-3
MEAN_MOTION_DOT = .151E-5
MEAN_MOTION_DDOT = 0

CCSDS_OMM_VERS = 2.0
CREATION_DATE  = 
ORIGINATOR     = 

OBJECT_NAME    = SL-16 R/B
OBJECT_ID      = 1994-074B
CENTER_NAME    = EARTH
REF_FRAME      = TEME
TIME_SYSTEM    = UTC
MEAN_ELEMENT_THEORY = SGP/SGP4

EPOCH          = 2025-12-10T02:31:36.966144
MEAN_MOTION    = 14.79284768
ECCENTRICITY   = .0007365
INCLINATION    = 97.7203
RA_OF_ASC_NODE = 13.5144
ARG_OF_PERICENTER = 143.3593
MEAN_ANOMALY   = 282.0962

EPHEMERIS_TYPE = 0
CLASSIFICATION_TYPE = U
NORAD_CAT_ID   = 23343
ELEMENT_SET_NO = 999
REV_AT_EPOCH   = 67400
BSTAR          = .10926E-3
MEAN_MOTION_DOT = .763E-5
MEAN_MOTION_DDOT = 0

CCSDS_OMM_VERS = 2.0
CREATION_DATE  = 
ORIGINATOR     = 

OBJECT_NAME    = SL-16 R/B
OBJECT_ID      = 1994-077B
CENTER_NAME    = EARTH
REF_FRAME      = TEME
TIME_SYSTEM    = UTC
MEAN_ELEMENT_THEORY = SGP/SGP4

EPOCH          = 2025-12-09T19:27:58.474080
MEAN_MOTION    = 14.15547869
ECCENTRICITY   = .0004602
INCLINATION    = 70.9812
RA_OF_ASC_NODE = 181.5750
ARG_OF_PERICENTER = 286.2063
MEAN_ANOMALY   = 73.8553

EPHEMERIS_TYPE = 0
CLASSIFICATION_TYPE = U
NORAD_CAT_ID   = 23405
ELEMENT_SET_NO = 999
REV_AT_EPOCH   = 60351
BSTAR          = .16305E-3
MEAN_MOTION_DOT = .271E-5
MEAN_MOTION_DDOT = 0

CCSDS_OMM_VERS = 2.0
CREATION_DATE  = 
ORIGINATOR     = 

OBJECT_NAME    = ARIANE 40+ R/B
OBJECT_ID      = 1995-021B
CENTER_NAME    = EARTH
REF_FRAME      = TEME
TIME_SYSTEM    = UTC
MEAN_ELEMENT_THEORY = SGP/SGP4

EPOCH          = 2025-12-10T03:48:59.386752
MEAN_MOTION    = 14.39692341
ECCENTRICITY   = .0007583
INCLINATION    = 98.4653
RA_OF_ASC_NODE = 51.7789
ARG_OF_PERICENTER = 56.8146
MEAN_ANOMALY   = 332.7962

EPHEMERIS_TYPE = 0
CLASSIFICATION_TYPE = U
NORAD_CAT_ID   = 23561
ELEMENT_SET_NO = 999
REV_AT_EPOCH   = 60636
BSTAR          = .17442E-3
MEAN_MOTION_DOT = .502E-5
MEAN_MOTION_DDOT = 0

CCSDS_OMM_VERS = 2.0
CREATION_DATE  = 
ORIGINATOR     = 

OBJECT_NAME    = SL-16 R/B
OBJECT_ID      = 1995-058B
CENTER_NAME    = EARTH
REF_FRAME      = TEME
TIME_SYSTEM    = UTC
MEAN_ELEMENT_THEORY = SGP/SGP4

EPOCH          = 2025-12-10T04:00:27.065088
MEAN_MOTION    = 14.15483199
ECCENTRICITY   = .0014952
INCLINATION    = 71.0225
RA_OF_ASC_NODE = 8.2060
ARG_OF_PERICENTER = 258.5396
MEAN_ANOMALY   = 101.4048

EPHEMERIS_TYPE = 0
CLASSIFICATION_TYPE = U
NORAD_CAT_ID   = 23705
ELEMENT_SET_NO = 999
REV_AT_EPOCH   = 55518
BSTAR          = .11022E-3
MEAN_MOTION_DOT = .168E-5
MEAN_MOTION_DDOT = 0

CCSDS_OMM_VERS = 2.0
CREATION_DATE  = 
ORIGINATOR     = 

OBJECT_NAME    = SL-16 R/B
OBJECT_ID      = 1996-051B
CENTER_NAME    = EARTH
REF_FRAME      = TEME
TIME_SYSTEM    = UTC
MEAN_ELEMENT_THEORY = SGP/SGP4

EPOCH          = 2025-12-10T03:38:08.609856
MEAN_MOTION    = 14.12396234
ECCENTRICITY   = .001935
INCLINATION    = 70.7595
RA_OF_ASC_NODE = 4.7628
ARG_OF_PERICENTER = 264.4988
MEAN_ANOMALY   = 95.3924

EPHEMERIS_TYPE = 0
CLASSIFICATION_TYPE = U
NORAD_CAT_ID   = 24298
ELEMENT_SET_NO = 999
REV_AT_EPOCH   = 50900
BSTAR          = .38729E-4
MEAN_MOTION_DOT = .22E-6
MEAN_MOTION_DDOT = 0

CCSDS_OMM_VERS = 2.0
CREATION_DATE  = 
ORIGINATOR     = 

OBJECT_NAME    = ORBVIEW 2 (SEASTAR)
OBJECT_ID      = 1997-037A
CENTER_NAME    = EARTH
REF_FRAME      = TEME
TIME_SYSTEM    = UTC
MEAN_ELEMENT_THEORY = SGP/SGP4

EPOCH          = 2025-12-10T01:22:36.175296
MEAN_MOTION    = 14.35413923
ECCENTRICITY   = .0001779
INCLINATION    = 98.8456
RA_OF_ASC_NODE = 141.0644
ARG_OF_PERICENTER = 350.8367
MEAN_ANOMALY   = 9.2785

EPHEMERIS_TYPE = 0
CLASSIFICATION_TYPE = U
NORAD_CAT_ID   = 24883
ELEMENT_SET_NO = 999
REV_AT_EPOCH   = 49561
BSTAR          = .19717E-3
MEAN_MOTION_DOT = .52E-5
MEAN_MOTION_DDOT = 0

