SL-16 R/B               
1 22566U 93016B   25344.16073826 -.00000150  00000+0 -52787-4 0  9991
2 22566  71.0085  43.2207 0007845 102.5077 257.6924 14.15287138689501
COSMOS 2242             
1 22626U 93024A   25344.09422656  .00003048  00000+0  26845-3 0  9990
2 22626  82.5189 352.3732 0014847 243.9518 116.0176 14.96087952766994
SL-16 R/B               
1 22803U 93059B   25344.05000916  .00000008  00000+0  27834-4 0  9995
2 22803  70.9896 200.1583 0017852 339.4196  20.6206 14.17213557666834
ARIANE 40 R/B           
1 22830U 93061H   25344.17409218  .00000426  00000+0  17193-3 0  9999
2 22830  98.5079  49.7507 0010725 183.5492 176.5617 14.32798760681289
COSMOS 2278             
1 23087U 94023A   25344.13124652 -.00000150  00000+0 -53789-4 0  9993
2 23087  71.0544   2.4686 0008456 183.9189 176.1868 14.14350920632143
SL-16 R/B               
1 23088U 94023B   25344.14789403  .00000151  00000+0  10272-3 0  9994
2 23088  71.0010 258.9284 0001231  36.9939 323.1269 14.15002319633426
SL-16 R/B               
1 23343U 94074B   25344.10528896  .00000763  00000+0  10926-3 0  9992
2 23343  97.7203  13.5144 0007365 143.3593 282.0962 14.79284768674004
SL-16 R/B               
1 23405U 94077B   25343.81109345  .00000271  00000+0  16305-3 0  9996
2 23405  70.9812 181.5750 0004602 286.2063  73.8553 14.15547869603515
ARIANE 40+ R/B          
1 23561U 95021B   25344.15902068  .00000502  00000+0  17442-3 0  9990
2 23561  98.4653  51.7789 0007583  56.8146 332.7962 14.39692341606369
SL-16 R/B               
1 23705U 95058B   25344.16697992  .00000168  00000+0  11022-3 0  9994
2 23705  71.0225   8.2060 0014952 258.5396 101.4048 14.15483199555188
SL-16 R/B               
1 24298U 96051B   25344.15148854  .00000022  00000+0  38729-4 0  9996
2 24298  70.7595   4.7628 0019350 264.4988  95.3924 14.12396234509007
ORBVIEW 2 (SEASTAR)     
1 24883U 97037A   25344.05736314  .00000520  00000+0  19717-3 0  9992
2 24883  98.8456 141.0644 0001779 350.8367   9.2785 14.35413923495614
